[
    {
        "OBJECT_NAME": "ISS (ZARYA)",
        "OBJECT_ID": "1998-067A",
        "EPOCH": "2024-09-30T12:06:33.543360",
        "MEAN_MOTION": 15.49960791,
        "ECCENTRICITY": 0.0007188,
        "INCLINATION": 51.6367,
        "RA_OF_ASC_NODE": 153.7358,
        "ARG_OF_PERICENTER": 46.4178,
        "MEAN_ANOMALY": 313.7407,
        "EPHEMERIS_TYPE": 0,
        "CLASSIFICATION_TYPE": "U",
        "NORAD_CAT_ID": 25544,
        "ELEMENT_SET_NO": 999,
        "REV_AT_EPOCH": 47488,
        "BSTAR": 0.00056373,
        "MEAN_MOTION_DOT": 0.00031827,
        "MEAN_MOTION_DDOT": 0,
        "date_fetched": "2024-09-30T19:10:30.954330Z"
    },
    {
        "OBJECT_NAME": "ISS (ZARYA)",
        "OBJECT_ID": "1998-067A",
        "EPOCH": "2024-10-01T01:06:07.721280",
        "MEAN_MOTION": 15.4998939,
        "ECCENTRICITY": 0.0007471,
        "INCLINATION": 51.6382,
        "RA_OF_ASC_NODE": 151.0497,
        "ARG_OF_PERICENTER": 49.2119,
        "MEAN_ANOMALY": 93.716,
        "EPHEMERIS_TYPE": 0,
        "CLASSIFICATION_TYPE": "U",
        "NORAD_CAT_ID": 25544,
        "ELEMENT_SET_NO": 999,
        "REV_AT_EPOCH": 47496,
        "BSTAR": 0.00053574,
        "MEAN_MOTION_DOT": 0.0003025,
        "MEAN_MOTION_DDOT": 0,
        "date_fetched": "2024-10-01T02:24:07.489454Z"
    },
    {
        "OBJECT_NAME": "ISS (ZARYA)",
        "OBJECT_ID": "1998-067A",
        "EPOCH": "2024-10-01T02:43:20.294976",
        "MEAN_MOTION": 15.50002848,
        "ECCENTRICITY": 0.000707,
        "INCLINATION": 51.6388,
        "RA_OF_ASC_NODE": 150.7184,
        "ARG_OF_PERICENTER": 47.8248,
        "MEAN_ANOMALY": 112.043,
        "EPHEMERIS_TYPE": 0,
        "CLASSIFICATION_TYPE": "U",
        "NORAD_CAT_ID": 25544,
        "ELEMENT_SET_NO": 999,
        "REV_AT_EPOCH": 47497,
        "BSTAR": 0.00045562,
        "MEAN_MOTION_DOT": 0.00025652,
        "MEAN_MOTION_DDOT": 0,
        "date_fetched": "2024-10-01T07:15:28.632689Z"
    }
]